CCSDS_OMM_VERS = 2.0
CREATION_DATE  = 
ORIGINATOR     = 

OBJECT_NAME    = HULIANWANG DIGUI-137
OBJECT_ID      = 2026-007A
CENTER_NAME    = EARTH
REF_FRAME      = TEME
TIME_SYSTEM    = UTC
MEAN_ELEMENT_THEORY = SGP/SGP4

EPOCH          = 2026-02-09T19:23:14.370144
MEAN_MOTION    = 13.71421020
ECCENTRICITY   = .0001854
INCLINATION    = 50.0048
RA_OF_ASC_NODE = 187.1676
ARG_OF_PERICENTER = 1.8688
MEAN_ANOMALY   = 358.2209

EPHEMERIS_TYPE = 0
CLASSIFICATION_TYPE = U
NORAD_CAT_ID   = 67435
ELEMENT_SET_NO = 999
REV_AT_EPOCH   = 377
BSTAR          = .16318E-3
MEAN_MOTION_DOT = .8E-7
MEAN_MOTION_DDOT = 0

CCSDS_OMM_VERS = 2.0
CREATION_DATE  = 
ORIGINATOR     = 

OBJECT_NAME    = HULIANWANG DIGUI-138
OBJECT_ID      = 2026-007B
CENTER_NAME    = EARTH
REF_FRAME      = TEME
TIME_SYSTEM    = UTC
MEAN_ELEMENT_THEORY = SGP/SGP4

EPOCH          = 2026-02-09T05:33:23.984640
MEAN_MOTION    = 13.72153563
ECCENTRICITY   = .0000445
INCLINATION    = 50.0038
RA_OF_ASC_NODE = 189.4504
ARG_OF_PERICENTER = 79.2117
MEAN_ANOMALY   = 280.8824

EPHEMERIS_TYPE = 0
CLASSIFICATION_TYPE = U
NORAD_CAT_ID   = 67436
ELEMENT_SET_NO = 999
REV_AT_EPOCH   = 369
BSTAR          = .1617E-3
MEAN_MOTION_DOT = .9E-7
MEAN_MOTION_DDOT = 0

CCSDS_OMM_VERS = 2.0
CREATION_DATE  = 
ORIGINATOR     = 

OBJECT_NAME    = HULIANWANG DIGUI-139
OBJECT_ID      = 2026-007C
CENTER_NAME    = EARTH
REF_FRAME      = TEME
TIME_SYSTEM    = UTC
MEAN_ELEMENT_THEORY = SGP/SGP4

EPOCH          = 2026-02-09T12:27:54.774144
MEAN_MOTION    = 13.71912083
ECCENTRICITY   = .0000676
INCLINATION    = 50.0039
RA_OF_ASC_NODE = 188.2984
ARG_OF_PERICENTER = 231.2275
MEAN_ANOMALY   = 128.8555

EPHEMERIS_TYPE = 0
CLASSIFICATION_TYPE = U
NORAD_CAT_ID   = 67437
ELEMENT_SET_NO = 999
REV_AT_EPOCH   = 373
BSTAR          = .19011E-3
MEAN_MOTION_DOT = .34E-6
MEAN_MOTION_DDOT = 0

CCSDS_OMM_VERS = 2.0
CREATION_DATE  = 
ORIGINATOR     = 

OBJECT_NAME    = HULIANWANG DIGUI-140
OBJECT_ID      = 2026-007D
CENTER_NAME    = EARTH
REF_FRAME      = TEME
TIME_SYSTEM    = UTC
MEAN_ELEMENT_THEORY = SGP/SGP4

EPOCH          = 2026-02-07T13:27:31.540608
MEAN_MOTION    = 13.73892776
ECCENTRICITY   = .00004499
INCLINATION    = 50.0042
RA_OF_ASC_NODE = 195.9376
ARG_OF_PERICENTER = 100.2709
MEAN_ANOMALY   = 259.8233

EPHEMERIS_TYPE = 0
CLASSIFICATION_TYPE = U
NORAD_CAT_ID   = 67438
ELEMENT_SET_NO = 999
REV_AT_EPOCH   = 346
BSTAR          = .18839618E-3
MEAN_MOTION_DOT = .37E-6
MEAN_MOTION_DDOT = 0

CCSDS_OMM_VERS = 2.0
CREATION_DATE  = 
ORIGINATOR     = 

OBJECT_NAME    = HULIANWANG DIGUI-141
OBJECT_ID      = 2026-007E
CENTER_NAME    = EARTH
REF_FRAME      = TEME
TIME_SYSTEM    = UTC
MEAN_ELEMENT_THEORY = SGP/SGP4

EPOCH          = 2026-02-09T19:17:22.982208
MEAN_MOTION    = 13.71867433
ECCENTRICITY   = .000043
INCLINATION    = 50.0053
RA_OF_ASC_NODE = 187.1469
ARG_OF_PERICENTER = 166.3886
MEAN_ANOMALY   = 193.7016

EPHEMERIS_TYPE = 0
CLASSIFICATION_TYPE = U
NORAD_CAT_ID   = 67439
ELEMENT_SET_NO = 999
REV_AT_EPOCH   = 377
BSTAR          = .16218E-3
MEAN_MOTION_DOT = .8E-7
MEAN_MOTION_DDOT = 0

CCSDS_OMM_VERS = 2.0
CREATION_DATE  = 
ORIGINATOR     = 

OBJECT_NAME    = HULIANWANG DIGUI-142
OBJECT_ID      = 2026-007F
CENTER_NAME    = EARTH
REF_FRAME      = TEME
TIME_SYSTEM    = UTC
MEAN_ELEMENT_THEORY = SGP/SGP4

EPOCH          = 2026-02-09T19:12:17.899488
MEAN_MOTION    = 13.71791825
ECCENTRICITY   = .0001726
INCLINATION    = 50.0096
RA_OF_ASC_NODE = 187.1429
ARG_OF_PERICENTER = 4.2068
MEAN_ANOMALY   = 355.8837

EPHEMERIS_TYPE = 0
CLASSIFICATION_TYPE = U
NORAD_CAT_ID   = 67440
ELEMENT_SET_NO = 999
REV_AT_EPOCH   = 377
BSTAR          = .15784E-4
MEAN_MOTION_DOT = -.125E-5
MEAN_MOTION_DDOT = 0

CCSDS_OMM_VERS = 2.0
CREATION_DATE  = 
ORIGINATOR     = 

OBJECT_NAME    = HULIANWANG DIGUI-143
OBJECT_ID      = 2026-007G
CENTER_NAME    = EARTH
REF_FRAME      = TEME
TIME_SYSTEM    = UTC
MEAN_ELEMENT_THEORY = SGP/SGP4

EPOCH          = 2026-02-09T19:06:52.574112
MEAN_MOTION    = 13.72021648
ECCENTRICITY   = .0001405
INCLINATION    = 50.0081
RA_OF_ASC_NODE = 187.1189
ARG_OF_PERICENTER = 350.4084
MEAN_ANOMALY   = 9.6780

EPHEMERIS_TYPE = 0
CLASSIFICATION_TYPE = U
NORAD_CAT_ID   = 67441
ELEMENT_SET_NO = 999
REV_AT_EPOCH   = 377
BSTAR          = .15916E-3
MEAN_MOTION_DOT = .6E-7
MEAN_MOTION_DDOT = 0

CCSDS_OMM_VERS = 2.0
CREATION_DATE  = 
ORIGINATOR     = 

OBJECT_NAME    = HULIANWANG DIGUI-144
OBJECT_ID      = 2026-007H
CENTER_NAME    = EARTH
REF_FRAME      = TEME
TIME_SYSTEM    = UTC
MEAN_ELEMENT_THEORY = SGP/SGP4

EPOCH          = 2026-02-07T09:25:24.076128
MEAN_MOTION    = 13.75792192
ECCENTRICITY   = .00019321
INCLINATION    = 50.0090
RA_OF_ASC_NODE = 196.4111
ARG_OF_PERICENTER = 359.9166
MEAN_ANOMALY   = 0.1726

EPHEMERIS_TYPE = 0
CLASSIFICATION_TYPE = U
NORAD_CAT_ID   = 67442
ELEMENT_SET_NO = 999
REV_AT_EPOCH   = 344
BSTAR          = .15225462E-3
MEAN_MOTION_DOT = .7E-7
MEAN_MOTION_DDOT = 0

CCSDS_OMM_VERS = 2.0
CREATION_DATE  = 
ORIGINATOR     = 

OBJECT_NAME    = HULIANWANG DIGUI-145
OBJECT_ID      = 2026-007J
CENTER_NAME    = EARTH
REF_FRAME      = TEME
TIME_SYSTEM    = UTC
MEAN_ELEMENT_THEORY = SGP/SGP4

EPOCH          = 2026-02-09T18:56:05.896032
MEAN_MOTION    = 13.72414175
ECCENTRICITY   = .0001457
INCLINATION    = 50.0048
RA_OF_ASC_NODE = 187.0795
ARG_OF_PERICENTER = 337.0578
MEAN_ANOMALY   = 23.0248

EPHEMERIS_TYPE = 0
CLASSIFICATION_TYPE = U
NORAD_CAT_ID   = 67443
ELEMENT_SET_NO = 999
REV_AT_EPOCH   = 377
BSTAR          = .16601E-3
MEAN_MOTION_DOT = .13E-6
MEAN_MOTION_DDOT = 0

CCSDS_OMM_VERS = 2.0
CREATION_DATE  = 
ORIGINATOR     = 

OBJECT_NAME    = CZ-8A R/B
OBJECT_ID      = 2026-007K
CENTER_NAME    = EARTH
REF_FRAME      = TEME
TIME_SYSTEM    = UTC
MEAN_ELEMENT_THEORY = SGP/SGP4

EPOCH          = 2026-02-09T18:21:19.455264
MEAN_MOTION    = 14.13552746
ECCENTRICITY   = .0092241
INCLINATION    = 50.0090
RA_OF_ASC_NODE = 182.2359
ARG_OF_PERICENTER = 176.0890
MEAN_ANOMALY   = 184.0759

EPHEMERIS_TYPE = 0
CLASSIFICATION_TYPE = U
NORAD_CAT_ID   = 67444
ELEMENT_SET_NO = 999
REV_AT_EPOCH   = 383
BSTAR          = .12891E-3
MEAN_MOTION_DOT = .99E-6
MEAN_MOTION_DDOT = 0

CCSDS_OMM_VERS = 2.0
CREATION_DATE  = 
ORIGINATOR     = 

OBJECT_NAME    = STARLINK-36542
OBJECT_ID      = 2026-008A
CENTER_NAME    = EARTH
REF_FRAME      = TEME
TIME_SYSTEM    = UTC
MEAN_ELEMENT_THEORY = SGP/SGP4

EPOCH          = 2026-02-09T20:00:01.999008
MEAN_MOTION    = 15.50707187
ECCENTRICITY   = .0000741
INCLINATION    = 43.0002
RA_OF_ASC_NODE = 3.7242
ARG_OF_PERICENTER = 254.3835
MEAN_ANOMALY   = 278.2796

EPHEMERIS_TYPE = 0
CLASSIFICATION_TYPE = U
NORAD_CAT_ID   = 67445
ELEMENT_SET_NO = 999
REV_AT_EPOCH   = 532
BSTAR          = -.35751E-2
MEAN_MOTION_DOT = -.205588E-2
MEAN_MOTION_DDOT = 0

CCSDS_OMM_VERS = 2.0
CREATION_DATE  = 
ORIGINATOR     = 

OBJECT_NAME    = STARLINK-36539
OBJECT_ID      = 2026-008B
CENTER_NAME    = EARTH
REF_FRAME      = TEME
TIME_SYSTEM    = UTC
MEAN_ELEMENT_THEORY = SGP/SGP4

EPOCH          = 2026-02-09T20:00:01.999008
MEAN_MOTION    = 15.50556078
ECCENTRICITY   = .000119
INCLINATION    = 43.0000
RA_OF_ASC_NODE = 3.6273
ARG_OF_PERICENTER = 257.7344
MEAN_ANOMALY   = 314.3192

EPHEMERIS_TYPE = 0
CLASSIFICATION_TYPE = U
NORAD_CAT_ID   = 67446
ELEMENT_SET_NO = 999
REV_AT_EPOCH   = 532
BSTAR          = .27341E-3
MEAN_MOTION_DOT = .15717E-3
MEAN_MOTION_DDOT = 0

