HULIANWANG DIGUI-137    
1 67435U 26007A   26040.80780521  .00000008  00000+0  16318-3 0  9992
2 67435  50.0048 187.1676 0001854   1.8688 358.2209 13.71421020  3776
HULIANWANG DIGUI-138    
1 67436U 26007B   26040.23152760  .00000009  00000+0  16170-3 0  9995
2 67436  50.0038 189.4504 0000445  79.2117 280.8824 13.72153563  3691
HULIANWANG DIGUI-139    
1 67437U 26007C   26040.51938396  .00000034  00000+0  19011-3 0  9999
2 67437  50.0039 188.2984 0000676 231.2275 128.8555 13.71912083  3739
HULIANWANG DIGUI-140    
1 67438U 26007D   26038.56078172  .00000037  00000+0  18840-3 0  9991
2 67438  50.0042 195.9376 0000449 100.2709 259.8233 13.73892776  3465
HULIANWANG DIGUI-141    
1 67439U 26007E   26040.80373822  .00000008  00000+0  16218-3 0  9997
2 67439  50.0053 187.1469 0000430 166.3886 193.7016 13.71867433  3772
HULIANWANG DIGUI-142    
1 67440U 26007F   26040.80020717 -.00000125  00000+0  15784-4 0  9990
2 67440  50.0096 187.1429 0001726   4.2068 355.8837 13.71791825  3771
HULIANWANG DIGUI-143    
1 67441U 26007G   26040.79644183  .00000006  00000+0  15916-3 0  9991
2 67441  50.0081 187.1189 0001405 350.4084   9.6780 13.72021648  3778
HULIANWANG DIGUI-144    
1 67442U 26007H   26038.39263977  .00000007  00000+0  15225-3 0  9997
2 67442  50.0090 196.4111 0001932 359.9166   0.1726 13.75792192  3449
HULIANWANG DIGUI-145    
1 67443U 26007J   26040.78895713  .00000013  00000+0  16601-3 0  9999
2 67443  50.0048 187.0795 0001457 337.0578  23.0248 13.72414175  3771
CZ-8A R/B               
1 67444U 26007K   26040.76480851  .00000099  00000+0  12891-3 0  9992
2 67444  50.0090 182.2359 0092241 176.0890 184.0759 14.13552746  3836
STARLINK-36542          
1 67445U 26008A   26040.83335647 -.00205588  00000+0 -35751-2 0  9995
2 67445  43.0002   3.7242 0000741 254.3835 278.2796 15.50707187  5329
STARLINK-36539          
1 67446U 26008B   26040.83335647  .00015717  00000+0  27341-3 0  9994
2 67446  43.0000   3.6273 0001190 257.7344 314.3192 15.50556078  5325
